SES-5-EGNOS-PRN 136
1 38652U 12036A   23124.23244233  .00000048  00000+0  00000+0 0  9991
2 38652   0.0490 295.8173 0002013 107.9518 266.7569  1.00270705 33055
